0 COSMOS 1249 COOLANT
1 26911U 81021Q   13281.28444247  .00000041  00000-0  10431-3 0  5668
2 26911 064.9590 229.1464 0059499 307.9186 051.6520 13.90322106636373
0 COSMOS 1249 COOLANT
1 26911U 81021Q   13283.44235539  .00000042  00000-0  10520-3 0  5671
2 26911 064.9591 223.4920 0059495 307.2953 052.2699 13.90322725636673
0 COSMOS 1249 COOLANT
1 26911U 81021Q   13287.18273384  .00000045  00000-0  10785-3 0  5683
2 26911 064.9579 213.6802 0059809 306.1180 053.4355 13.90323841637198
0 COSMOS 1249 COOLANT
1 26911U 81021Q   13289.19678360  .00000050  00000-0  11151-3 0  5694
2 26911 064.9564 208.3977 0060069 306.1820 053.3708 13.90324549637475
0 COSMOS 1249 COOLANT
1 26911U 81021Q   13292.21785473  .00000056  00000-0  11606-3 0  5708
2 26911 064.9561 200.4793 0060181 305.5725 053.9742 13.90325671637890
0 COSMOS 1249 COOLANT
1 26911U 81021Q   13295.16699398  .00000064  00000-0  12239-3 0  5718
2 26911 064.9565 192.7493 0060584 304.8050 054.7411 13.90326945638308
